MONITOR-2 (RS39S)       
1 57184U 23091U   25182.21317942  .00003514  00000+0  19407-3 0  9993
2 57184  97.5592 237.7327 0010861 246.5227 113.4864 15.14542466110758
SVYATOBOR 1 (RS60S)     
1 57187U 23091X   25182.12325270  .00005162  00000+0  24835-3 0  9991
2 57187  97.5594 239.8551 0009804 235.9465 124.0839 15.19195294110888
VIZARD-METEO (RS38S)    
1 57189U 23091Z   25182.20292290  .00008530  00000+0  35597-3 0  9996
2 57189  97.5582 241.9695 0008491 224.9076 135.1474 15.23884074111039
NANOZOND 1 (RS49S)      
1 57190U 23091AA  25182.21137410  .00022136  00000+0  62063-3 0  9997
2 57190  97.5535 246.2885 0006160 209.4570 150.6328 15.36590734111330
POLYTECH-UNIVERSE 3 (R*)
1 57191U 23091AB  25182.21190882  .00003476  00000+0  19114-3 0  9995
2 57191  97.5562 237.2723 0015436 266.1698  93.7769 15.14652974110740
UTMN 2 (RS27S)          
1 57203U 23091AP  25182.20346510  .00007415  00000+0  32674-3 0  9992
2 57203  97.5582 241.1973 0008941 228.1543 131.8930 15.22078280110988
ARCCUBE 1 (RS25S)       
1 57205U 23091AR  25182.20119383  .00043460  00000+0  85342-3 0  9990
2 57205  97.5444 248.7188 0005796 199.6101 160.4926 15.47178278111513
KUZGTU 1 (RS47S)        
1 57217U 23091AV  25182.20273291  .00006813  00000+0  31493-3 0  9991
2 57217  97.5568 239.5487 0012092 245.4646 114.5329 15.20440832110889
SONATE-2                
1 59112U 24043Q   25181.86172798  .00012850  00000+0  36409-3 0  9996
2 59112  97.5162 313.4779 0011457  44.8639 315.3529 15.36335598 73608
MESAT1                  
1 60209U 24125G   25182.13170218  .00015613  00000+0  43407-3 0  9998
2 60209  97.2774  33.5149 0019838  63.5245 296.8031 15.36738592 55260
OOV-CUBE (TUBSAT-30)    
1 60240U 24128F   25181.85719515  .00001692  00000+0  14669-3 0  9993
2 60240  61.9959   8.4575 0053655  59.2566 301.3792 15.00355690 53354
COLIBRI-S (RS67S)       
1 61746U 24199M   25182.21279662  .00009810  00000+0  30899-3 0  9991
2 61746  97.3541  50.7455 0013911 105.0375 255.2408 15.33023012 83408
HORS 3 (RS81S)          
1 61753U 24199U   25182.18469159  .00013889  00000+0  41671-3 0  9998
2 61753  97.3508  50.8418 0012205 111.6306 248.6238 15.34500774 83415
HORS 4 (RS82S)          
1 61754U 24199V   25182.17689032  .00014074  00000+0  41207-3 0  9994
2 61754  97.3505  50.9950 0012352 111.2201 249.0363 15.35268151 83424
HORIZON (RS59S)         
1 61757U 24199Y   25182.18304018  .00021234  00000+0  55410-3 0  9993
2 61757  97.3526  51.6731 0012552 100.5307 259.7354 15.38758313 83464
SIT-2086                
1 61764U 24199AF  25182.17571380  .00009314  00000+0  26470-3 0  9997
2 61764  97.3510  51.3114 0010347 105.1903 255.0486 15.36334030 80286
MORDOVIA-IOT (RS50S)    
1 61765U 24199AG  25182.18028200  .00029849  00000+0  67672-3 0  9991
2 61765  97.3503  52.4079 0011709  96.7489 263.5091 15.42964998 80362
RUZAEVKA 390 (RS44S)    
1 61766U 24199AH  25182.21338655  .00025082  00000+0  59784-3 0  9994
2 61766  97.3504  52.2085 0011853  96.8303 263.4293 15.41493940 80350
HYPERVIEW 1G (RS66S)    
1 61772U 24199AP  25182.17633314  .00017450  00000+0  49462-3 0  9998
2 61772  97.3506  50.9966 0015258 113.4549 246.8301 15.36195711 80278
ALTAIR (RS65S)          
1 61779U 24199AW  25182.20049163  .00005904  00000+0  21017-3 0  9999
2 61779  97.3531  49.8036 0017084 117.9225 242.3747 15.29199380 83341
ASRTU-1 (AO-123)        
1 61781U 24199AY  25182.18396328  .00005404  00000+0  19616-3 0  9994
2 61781  97.3521  49.6557 0017386 118.5434 241.7558 15.28592796 80182
TUSUR GO (RS78S)        
1 61782U 24199AZ  25182.20155788  .00021053  00000+0  57102-3 0  9991
2 61782  97.3499  51.1097 0015558 112.8233 247.4657 15.37523754 80289
SAMSAT-IONOSPHERE (RS7*)
1 61784U 24199BB  25182.16768192  .00014079  00000+0  42801-3 0  9997
2 61784  97.3512  50.5703 0016383 115.4031 244.8910 15.34020275 83391
RTU MIREA 1 (RS51S)     
1 61785U 24199BC  25182.19836584  .00014731  00000+0  44104-3 0  9995
2 61785  97.3511  50.6783 0016113 113.8585 246.4348 15.34498563 80251
HADES-R                 
1 62690U 25009CK  25181.21455083  .00025807  00000+0  88055-3 0  9994
2 62690  97.4084 261.9563 0002559  55.6299 304.5183 15.30316876 25300
HADES-ICM               
1 63492U 25052BN  25181.97583412  .00018898  00000+0  78903-3 0  9997
2 63492  97.4291  75.8559 0009860 306.7493  53.2838 15.23649672 16519
